{
  "norad_id": 65073,
  "name": "STARLINK-34781",
  "history": [
    {
      "epoch": "2026-03-28T17:59:39.364224",
      "apogee_km": 550.1334472441258,
      "perigee_km": 548.9042039944288,
      "latitude_deg": 8.681687015498158,
      "longitude_deg": 39.277071360033005,
      "semi_major_axis_km": 6927.6558256192775,
      "eccentricity": 8.872e-05,
      "inclination_deg": 97.6045,
      "raan_deg": 166.0994,
      "arg_perigee_deg": 98.9929,
      "mean_anomaly_deg": 261.1398,
      "mean_motion_rev_day": 15.05647499
    },
    {
      "epoch": "2026-03-29T05:09:33.200640",
      "apogee_km": 550.1287419830514,
      "perigee_km": 548.8221942715627,
      "latitude_deg": 80.99070068680828,
      "longitude_deg": 83.93688960000873,
      "semi_major_axis_km": 6927.612468127307,
      "eccentricity": 9.43e-05,
      "inclination_deg": 97.6046,
      "raan_deg": 166.5581,
      "arg_perigee_deg": 99.0615,
      "mean_anomaly_deg": 261.0719,
      "mean_motion_rev_day": 15.05661634
    }
  ]
}